ORBCOMM FM20 [+]        
1 25416U 98046D   24085.15781113  .00003094  00000+0  11250-2 0  9997
2 25416  44.9930 144.0928 0001978 246.1996 113.8644 14.35014609339756
ORBCOMM FM16 [-]        
1 25417U 98046E   24085.21648446  .00004773  00000+0  16773-2 0  9996
2 25417  44.9929 139.9207 0005235 220.8509 139.1946 14.35923236339871
ORBCOMM FM15 [-]        
1 25418U 98046F   24084.88603112  .00008127  00000+0  28350-2 0  9991
2 25418  44.9961 145.4337 0004851 221.5883 138.4596 14.35670368339788
ORBCOMM FM14 [-]        
1 25419U 98046G   24085.19975264  .00004640  00000+0  16357-2 0  9997
2 25419  44.9948 143.1261 0003529 222.4321 166.4738 14.35810069339843
ORBCOMM FM13 [+]        
1 25420U 98046H   24084.86933382  .00007638  00000+0  26959-2 0  9996
2 25420  44.9965 149.3056 0005416 202.3810 157.6802 14.35143588338636
ORBCOMM FM21 [-]        
1 25475U 98053A   24085.09678170  .00008221  00000+0  29002-2 0  9992
2 25475  45.0067 232.4891 0001490 177.4682 182.6173 14.35109075333018
ORBCOMM FM22 [-]        
1 25476U 98053B   24085.09081705  .00009502  00000+0  33112-2 0  9995
2 25476  45.0062 229.9857 0002865 152.9987 207.1010 14.35595781333038
ORBCOMM FM23 [-]        
1 25477U 98053C   24085.12624861  .00008805  00000+0  31003-2 0  9998
2 25477  45.0070 234.7907 0002151 158.3090 201.7849 14.35143976333148
