<?xml version="1.0" encoding="UTF-8"?>
<ndm xmlns:xsi="http://www.w3.org/2001/XMLSchema-instance" xsi:noNamespaceSchemaLocation="https://sanaregistry.org/r/ndmxml_unqualified/ndmxml-2.0.0-master-2.0.xsd">
<omm id="CCSDS_OMM_VERS" version="2.0">
<header><CREATION_DATE/><ORIGINATOR/></header><body><segment><metadata><OBJECT_NAME>ORBCOMM FM20 [+]</OBJECT_NAME><OBJECT_ID>1998-046D</OBJECT_ID><CENTER_NAME>EARTH</CENTER_NAME><REF_FRAME>TEME</REF_FRAME><TIME_SYSTEM>UTC</TIME_SYSTEM><MEAN_ELEMENT_THEORY>SGP4</MEAN_ELEMENT_THEORY></metadata><data><meanElements><EPOCH>2024-03-25T03:47:14.881632</EPOCH><MEAN_MOTION>14.35014609</MEAN_MOTION><ECCENTRICITY>.0001978</ECCENTRICITY><INCLINATION>44.9930</INCLINATION><RA_OF_ASC_NODE>144.0928</RA_OF_ASC_NODE><ARG_OF_PERICENTER>246.1996</ARG_OF_PERICENTER><MEAN_ANOMALY>113.8644</MEAN_ANOMALY></meanElements><tleParameters><EPHEMERIS_TYPE>0</EPHEMERIS_TYPE><CLASSIFICATION_TYPE>U</CLASSIFICATION_TYPE><NORAD_CAT_ID>25416</NORAD_CAT_ID><ELEMENT_SET_NO>999</ELEMENT_SET_NO><REV_AT_EPOCH>33975</REV_AT_EPOCH><BSTAR>.1125E-2</BSTAR><MEAN_MOTION_DOT>.3094E-4</MEAN_MOTION_DOT><MEAN_MOTION_DDOT>0</MEAN_MOTION_DDOT></tleParameters></data></segment></body></omm>
<omm id="CCSDS_OMM_VERS" version="2.0">
<header><CREATION_DATE/><ORIGINATOR/></header><body><segment><metadata><OBJECT_NAME>ORBCOMM FM16 [-]</OBJECT_NAME><OBJECT_ID>1998-046E</OBJECT_ID><CENTER_NAME>EARTH</CENTER_NAME><REF_FRAME>TEME</REF_FRAME><TIME_SYSTEM>UTC</TIME_SYSTEM><MEAN_ELEMENT_THEORY>SGP4</MEAN_ELEMENT_THEORY></metadata><data><meanElements><EPOCH>2024-03-25T05:11:44.257344</EPOCH><MEAN_MOTION>14.35923236</MEAN_MOTION><ECCENTRICITY>.0005235</ECCENTRICITY><INCLINATION>44.9929</INCLINATION><RA_OF_ASC_NODE>139.9207</RA_OF_ASC_NODE><ARG_OF_PERICENTER>220.8509</ARG_OF_PERICENTER><MEAN_ANOMALY>139.1946</MEAN_ANOMALY></meanElements><tleParameters><EPHEMERIS_TYPE>0</EPHEMERIS_TYPE><CLASSIFICATION_TYPE>U</CLASSIFICATION_TYPE><NORAD_CAT_ID>25417</NORAD_CAT_ID><ELEMENT_SET_NO>999</ELEMENT_SET_NO><REV_AT_EPOCH>33987</REV_AT_EPOCH><BSTAR>.16773E-2</BSTAR><MEAN_MOTION_DOT>.4773E-4</MEAN_MOTION_DOT><MEAN_MOTION_DDOT>0</MEAN_MOTION_DDOT></tleParameters></data></segment></body></omm>
<omm id="CCSDS_OMM_VERS" version="2.0">
<header><CREATION_DATE/><ORIGINATOR/></header><body><segment><metadata><OBJECT_NAME>ORBCOMM FM15 [-]</OBJECT_NAME><OBJECT_ID>1998-046F</OBJECT_ID><CENTER_NAME>EARTH</CENTER_NAME><REF_FRAME>TEME</REF_FRAME><TIME_SYSTEM>UTC</TIME_SYSTEM><MEAN_ELEMENT_THEORY>SGP4</MEAN_ELEMENT_THEORY></metadata><data><meanElements><EPOCH>2024-03-24T21:15:53.088768</EPOCH><MEAN_MOTION>14.35670368</MEAN_MOTION><ECCENTRICITY>.0004851</ECCENTRICITY><INCLINATION>44.9961</INCLINATION><RA_OF_ASC_NODE>145.4337</RA_OF_ASC_NODE><ARG_OF_PERICENTER>221.5883</ARG_OF_PERICENTER><MEAN_ANOMALY>138.4596</MEAN_ANOMALY></meanElements><tleParameters><EPHEMERIS_TYPE>0</EPHEMERIS_TYPE><CLASSIFICATION_TYPE>U</CLASSIFICATION_TYPE><NORAD_CAT_ID>25418</NORAD_CAT_ID><ELEMENT_SET_NO>999</ELEMENT_SET_NO><REV_AT_EPOCH>33978</REV_AT_EPOCH><BSTAR>.2835E-2</BSTAR><MEAN_MOTION_DOT>.8127E-4</MEAN_MOTION_DOT><MEAN_MOTION_DDOT>0</MEAN_MOTION_DDOT></tleParameters></data></segment></body></omm>
<omm id="CCSDS_OMM_VERS" version="2.0">
<header><CREATION_DATE/><ORIGINATOR/></header><body><segment><metadata><OBJECT_NAME>ORBCOMM FM14 [-]</OBJECT_NAME><OBJECT_ID>1998-046G</OBJECT_ID><CENTER_NAME>EARTH</CENTER_NAME><REF_FRAME>TEME</REF_FRAME><TIME_SYSTEM>UTC</TIME_SYSTEM><MEAN_ELEMENT_THEORY>SGP4</MEAN_ELEMENT_THEORY></metadata><data><meanElements><EPOCH>2024-03-25T04:47:38.628096</EPOCH><MEAN_MOTION>14.35810069</MEAN_MOTION><ECCENTRICITY>.0003529</ECCENTRICITY><INCLINATION>44.9948</INCLINATION><RA_OF_ASC_NODE>143.1261</RA_OF_ASC_NODE><ARG_OF_PERICENTER>222.4321</ARG_OF_PERICENTER><MEAN_ANOMALY>166.4738</MEAN_ANOMALY></meanElements><tleParameters><EPHEMERIS_TYPE>0</EPHEMERIS_TYPE><CLASSIFICATION_TYPE>U</CLASSIFICATION_TYPE><NORAD_CAT_ID>25419</NORAD_CAT_ID><ELEMENT_SET_NO>999</ELEMENT_SET_NO><REV_AT_EPOCH>33984</REV_AT_EPOCH><BSTAR>.16357E-2</BSTAR><MEAN_MOTION_DOT>.464E-4</MEAN_MOTION_DOT><MEAN_MOTION_DDOT>0</MEAN_MOTION_DDOT></tleParameters></data></segment></body></omm>
<omm id="CCSDS_OMM_VERS" version="2.0">
<header><CREATION_DATE/><ORIGINATOR/></header><body><segment><metadata><OBJECT_NAME>ORBCOMM FM13 [+]</OBJECT_NAME><OBJECT_ID>1998-046H</OBJECT_ID><CENTER_NAME>EARTH</CENTER_NAME><REF_FRAME>TEME</REF_FRAME><TIME_SYSTEM>UTC</TIME_SYSTEM><MEAN_ELEMENT_THEORY>SGP4</MEAN_ELEMENT_THEORY></metadata><data><meanElements><EPOCH>2024-03-24T20:51:50.442048</EPOCH><MEAN_MOTION>14.35143588</MEAN_MOTION><ECCENTRICITY>.0005416</ECCENTRICITY><INCLINATION>44.9965</INCLINATION><RA_OF_ASC_NODE>149.3056</RA_OF_ASC_NODE><ARG_OF_PERICENTER>202.3810</ARG_OF_PERICENTER><MEAN_ANOMALY>157.6802</MEAN_ANOMALY></meanElements><tleParameters><EPHEMERIS_TYPE>0</EPHEMERIS_TYPE><CLASSIFICATION_TYPE>U</CLASSIFICATION_TYPE><NORAD_CAT_ID>25420</NORAD_CAT_ID><ELEMENT_SET_NO>999</ELEMENT_SET_NO><REV_AT_EPOCH>33863</REV_AT_EPOCH><BSTAR>.26959E-2</BSTAR><MEAN_MOTION_DOT>.7638E-4</MEAN_MOTION_DOT><MEAN_MOTION_DDOT>0</MEAN_MOTION_DDOT></tleParameters></data></segment></body></omm>
<omm id="CCSDS_OMM_VERS" version="2.0">
<header><CREATION_DATE/><ORIGINATOR/></header><body><segment><metadata><OBJECT_NAME>ORBCOMM FM21 [-]</OBJECT_NAME><OBJECT_ID>1998-053A</OBJECT_ID><CENTER_NAME>EARTH</CENTER_NAME><REF_FRAME>TEME</REF_FRAME><TIME_SYSTEM>UTC</TIME_SYSTEM><MEAN_ELEMENT_THEORY>SGP4</MEAN_ELEMENT_THEORY></metadata><data><meanElements><EPOCH>2024-03-25T02:19:21.938880</EPOCH><MEAN_MOTION>14.35109075</MEAN_MOTION><ECCENTRICITY>.000149</ECCENTRICITY><INCLINATION>45.0067</INCLINATION><RA_OF_ASC_NODE>232.4891</RA_OF_ASC_NODE><ARG_OF_PERICENTER>177.4682</ARG_OF_PERICENTER><MEAN_ANOMALY>182.6173</MEAN_ANOMALY></meanElements><tleParameters><EPHEMERIS_TYPE>0</EPHEMERIS_TYPE><CLASSIFICATION_TYPE>U</CLASSIFICATION_TYPE><NORAD_CAT_ID>25475</NORAD_CAT_ID><ELEMENT_SET_NO>999</ELEMENT_SET_NO><REV_AT_EPOCH>33301</REV_AT_EPOCH><BSTAR>.29002E-2</BSTAR><MEAN_MOTION_DOT>.8221E-4</MEAN_MOTION_DOT><MEAN_MOTION_DDOT>0</MEAN_MOTION_DDOT></tleParameters></data></segment></body></omm>
<omm id="CCSDS_OMM_VERS" version="2.0">
<header><CREATION_DATE/><ORIGINATOR/></header><body><segment><metadata><OBJECT_NAME>ORBCOMM FM22 [-]</OBJECT_NAME><OBJECT_ID>1998-053B</OBJECT_ID><CENTER_NAME>EARTH</CENTER_NAME><REF_FRAME>TEME</REF_FRAME><TIME_SYSTEM>UTC</TIME_SYSTEM><MEAN_ELEMENT_THEORY>SGP4</MEAN_ELEMENT_THEORY></metadata><data><meanElements><EPOCH>2024-03-25T02:10:46.593120</EPOCH><MEAN_MOTION>14.35595781</MEAN_MOTION><ECCENTRICITY>.0002865</ECCENTRICITY><INCLINATION>45.0062</INCLINATION><RA_OF_ASC_NODE>229.9857</RA_OF_ASC_NODE><ARG_OF_PERICENTER>152.9987</ARG_OF_PERICENTER><MEAN_ANOMALY>207.1010</MEAN_ANOMALY></meanElements><tleParameters><EPHEMERIS_TYPE>0</EPHEMERIS_TYPE><CLASSIFICATION_TYPE>U</CLASSIFICATION_TYPE><NORAD_CAT_ID>25476</NORAD_CAT_ID><ELEMENT_SET_NO>999</ELEMENT_SET_NO><REV_AT_EPOCH>33303</REV_AT_EPOCH><BSTAR>.33112E-2</BSTAR><MEAN_MOTION_DOT>.9502E-4</MEAN_MOTION_DOT><MEAN_MOTION_DDOT>0</MEAN_MOTION_DDOT></tleParameters></data></segment></body></omm>
<omm id="CCSDS_OMM_VERS" version="2.0">
<header><CREATION_DATE/><ORIGINATOR/></header><body><segment><metadata><OBJECT_NAME>ORBCOMM FM23 [-]</OBJECT_NAME><OBJECT_ID>1998-053C</OBJECT_ID><CENTER_NAME>EARTH</CENTER_NAME><REF_FRAME>TEME</REF_FRAME><TIME_SYSTEM>UTC</TIME_SYSTEM><MEAN_ELEMENT_THEORY>SGP4</MEAN_ELEMENT_THEORY></metadata><data><meanElements><EPOCH>2024-03-25T03:01:47.879904</EPOCH><MEAN_MOTION>14.35143976</MEAN_MOTION><ECCENTRICITY>.0002151</ECCENTRICITY><INCLINATION>45.0070</INCLINATION><RA_OF_ASC_NODE>234.7907</RA_OF_ASC_NODE><ARG_OF_PERICENTER>158.3090</ARG_OF_PERICENTER><MEAN_ANOMALY>201.7849</MEAN_ANOMALY></meanElements><tleParameters><EPHEMERIS_TYPE>0</EPHEMERIS_TYPE><CLASSIFICATION_TYPE>U</CLASSIFICATION_TYPE><NORAD_CAT_ID>25477</NORAD_CAT_ID><ELEMENT_SET_NO>999</ELEMENT_SET_NO><REV_AT_EPOCH>33314</REV_AT_EPOCH><BSTAR>.31003E-2</BSTAR><MEAN_MOTION_DOT>.8805E-4</MEAN_MOTION_DOT><MEAN_MOTION_DDOT>0</MEAN_MOTION_DDOT></tleParameters></data></segment></body></omm>

</ndm>
